[{"OBJECT_NAME":"ONEWEB-0161","OBJECT_ID":"2021-025M","EPOCH":"2026-03-10T05:08:31.388352","MEAN_MOTION":13.13469326,"ECCENTRICITY":0.00018471,"INCLINATION":87.9035,"RA_OF_ASC_NODE":339.9101,"ARG_OF_PERICENTER":75.5969,"MEAN_ANOMALY":284.5365,"EPHEMERIS_TYPE":0,"CLASSIFICATION_TYPE":"U","NORAD_CAT_ID":48053,"ELEMENT_SET_NO":999,"REV_AT_EPOCH":24051,"BSTAR":0.00041285153,"MEAN_MOTION_DOT":1.64e-6,"MEAN_MOTION_DDOT":0},{"OBJECT_NAME":"ONEWEB-0158","OBJECT_ID":"2021-025N","EPOCH":"2026-03-10T05:59:42.504864","MEAN_MOTION":13.13471075,"ECCENTRICITY":0.0001597,"INCLINATION":87.9045,"RA_OF_ASC_NODE":339.8934,"ARG_OF_PERICENTER":87.9714,"MEAN_ANOMALY":272.1598,"EPHEMERIS_TYPE":0,"CLASSIFICATION_TYPE":"U","NORAD_CAT_ID":48054,"ELEMENT_SET_NO":999,"REV_AT_EPOCH":24064,"BSTAR":-0.0001595,"MEAN_MOTION_DOT":-4.6e-7,"MEAN_MOTION_DDOT":0},{"OBJECT_NAME":"ONEWEB-0157","OBJECT_ID":"2021-025P","EPOCH":"2026-03-10T04:46:35.119776","MEAN_MOTION":13.1347017,"ECCENTRICITY":0.00020972,"INCLINATION":87.9044,"RA_OF_ASC_NODE":339.9084,"ARG_OF_PERICENTER":75.2402,"MEAN_ANOMALY":284.896,"EPHEMERIS_TYPE":0,"CLASSIFICATION_TYPE":"U","NORAD_CAT_ID":48055,"ELEMENT_SET_NO":999,"REV_AT_EPOCH":24057,"BSTAR":0.0010865259,"MEAN_MOTION_DOT":4.1e-6,"MEAN_MOTION_DDOT":0},{"OBJECT_NAME":"ONEWEB-0162","OBJECT_ID":"2021-025Q","EPOCH":"2026-03-10T06:01:56.072352","MEAN_MOTION":13.1347251,"ECCENTRICITY":0.0001704,"INCLINATION":87.9041,"RA_OF_ASC_NODE":339.9021,"ARG_OF_PERICENTER":72.3753,"MEAN_ANOMALY":287.7562,"EPHEMERIS_TYPE":0,"CLASSIFICATION_TYPE":"U","NORAD_CAT_ID":48056,"ELEMENT_SET_NO":999,"REV_AT_EPOCH":24055,"BSTAR":-0.00022813,"MEAN_MOTION_DOT":-7.1e-7,"MEAN_MOTION_DDOT":0},{"OBJECT_NAME":"ONEWEB-0155","OBJECT_ID":"2021-025R","EPOCH":"2026-03-10T06:11:54.107232","MEAN_MOTION":13.13470256,"ECCENTRICITY":0.0001876,"INCLINATION":87.9035,"RA_OF_ASC_NODE":339.8995,"ARG_OF_PERICENTER":80.5949,"MEAN_ANOMALY":279.5393,"EPHEMERIS_TYPE":0,"CLASSIFICATION_TYPE":"U","NORAD_CAT_ID":48057,"ELEMENT_SET_NO":999,"REV_AT_EPOCH":24069,"BSTAR":0.00022206,"MEAN_MOTION_DOT":9.4e-7,"MEAN_MOTION_DDOT":0},{"OBJECT_NAME":"ONEWEB-0149","OBJECT_ID":"2021-025S","EPOCH":"2026-03-10T04:53:53.701728","MEAN_MOTION":13.13469451,"ECCENTRICITY":0.00016587,"INCLINATION":87.9044,"RA_OF_ASC_NODE":339.9074,"ARG_OF_PERICENTER":72.4733,"MEAN_ANOMALY":287.6577,"EPHEMERIS_TYPE":0,"CLASSIFICATION_TYPE":"U","NORAD_CAT_ID":48058,"ELEMENT_SET_NO":999,"REV_AT_EPOCH":24049,"BSTAR":0.00081032162,"MEAN_MOTION_DOT":3.09e-6,"MEAN_MOTION_DDOT":0},{"OBJECT_NAME":"ONEWEB-0148","OBJECT_ID":"2021-025T","EPOCH":"2026-03-10T05:49:56.808768","MEAN_MOTION":13.13471731,"ECCENTRICITY":0.0001813,"INCLINATION":87.9036,"RA_OF_ASC_NODE":339.9143,"ARG_OF_PERICENTER":59.1245,"MEAN_ANOMALY":301.0062,"EPHEMERIS_TYPE":0,"CLASSIFICATION_TYPE":"U","NORAD_CAT_ID":48059,"ELEMENT_SET_NO":999,"REV_AT_EPOCH":24062,"BSTAR":-0.00057395,"MEAN_MOTION_DOT":-1.97e-6,"MEAN_MOTION_DDOT":0},{"OBJECT_NAME":"ONEWEB-0160","OBJECT_ID":"2021-025U","EPOCH":"2026-03-10T06:14:19.825152","MEAN_MOTION":13.13470997,"ECCENTRICITY":0.0001108,"INCLINATION":87.9031,"RA_OF_ASC_NODE":339.9075,"ARG_OF_PERICENTER":99.4143,"MEAN_ANOMALY":260.7111,"EPHEMERIS_TYPE":0,"CLASSIFICATION_TYPE":"U","NORAD_CAT_ID":48060,"ELEMENT_SET_NO":999,"REV_AT_EPOCH":24057,"BSTAR":0.00026522,"MEAN_MOTION_DOT":1.1e-6,"MEAN_MOTION_DDOT":0},{"OBJECT_NAME":"ONEWEB-0163","OBJECT_ID":"2021-025V","EPOCH":"2026-03-10T05:52:23.720736","MEAN_MOTION":13.13470665,"ECCENTRICITY":0.0002016,"INCLINATION":87.9039,"RA_OF_ASC_NODE":339.9031,"ARG_OF_PERICENTER":77.2622,"MEAN_ANOMALY":282.8732,"EPHEMERIS_TYPE":0,"CLASSIFICATION_TYPE":"U","NORAD_CAT_ID":48061,"ELEMENT_SET_NO":999,"REV_AT_EPOCH":24069,"BSTAR":-0.00060006,"MEAN_MOTION_DOT":-2.06e-6,"MEAN_MOTION_DDOT":0},{"OBJECT_NAME":"ONEWEB-0159","OBJECT_ID":"2021-025W","EPOCH":"2026-03-10T07:29:53.776608","MEAN_MOTION":13.13469346,"ECCENTRICITY":0.000189,"INCLINATION":87.9047,"RA_OF_ASC_NODE":339.8757,"ARG_OF_PERICENTER":74.4712,"MEAN_ANOMALY":285.6625,"EPHEMERIS_TYPE":0,"CLASSIFICATION_TYPE":"U","NORAD_CAT_ID":48062,"ELEMENT_SET_NO":999,"REV_AT_EPOCH":24062,"BSTAR":-0.00086174,"MEAN_MOTION_DOT":-3.02e-6,"MEAN_MOTION_DDOT":0},{"OBJECT_NAME":"ONEWEB-0164","OBJECT_ID":"2021-025X","EPOCH":"2026-03-10T10:42:28.707840","MEAN_MOTION":13.13469602,"ECCENTRICITY":0.0001661,"INCLINATION":87.9046,"RA_OF_ASC_NODE":339.8561,"ARG_OF_PERICENTER":80.3297,"MEAN_ANOMALY":279.802,"EPHEMERIS_TYPE":0,"CLASSIFICATION_TYPE":"U","NORAD_CAT_ID":48063,"ELEMENT_SET_NO":999,"REV_AT_EPOCH":24062,"BSTAR":0.00036446,"MEAN_MOTION_DOT":1.46e-6,"MEAN_MOTION_DDOT":0},{"OBJECT_NAME":"ONEWEB-0167","OBJECT_ID":"2021-025Y","EPOCH":"2026-03-10T05:53:38.016096","MEAN_MOTION":13.13471274,"ECCENTRICITY":0.0002336,"INCLINATION":87.9037,"RA_OF_ASC_NODE":339.9145,"ARG_OF_PERICENTER":89.5792,"MEAN_ANOMALY":270.5605,"EPHEMERIS_TYPE":0,"CLASSIFICATION_TYPE":"U","NORAD_CAT_ID":48064,"ELEMENT_SET_NO":999,"REV_AT_EPOCH":24058,"BSTAR":-0.00068326,"MEAN_MOTION_DOT":-2.37e-6,"MEAN_MOTION_DDOT":0},{"OBJECT_NAME":"ONEWEB-0166","OBJECT_ID":"2021-025Z","EPOCH":"2026-03-09T19:28:21.032256","MEAN_MOTION":13.13470367,"ECCENTRICITY":0.00017705,"INCLINATION":87.9042,"RA_OF_ASC_NODE":339.9637,"ARG_OF_PERICENTER":72.1625,"MEAN_ANOMALY":287.9698,"EPHEMERIS_TYPE":0,"CLASSIFICATION_TYPE":"U","NORAD_CAT_ID":48065,"ELEMENT_SET_NO":999,"REV_AT_EPOCH":24060,"BSTAR":0.001020683,"MEAN_MOTION_DOT":3.85e-6,"MEAN_MOTION_DDOT":0},{"OBJECT_NAME":"ONEWEB-0151","OBJECT_ID":"2021-025AA","EPOCH":"2026-03-10T04:39:16.596576","MEAN_MOTION":13.13469887,"ECCENTRICITY":0.00018148,"INCLINATION":87.9037,"RA_OF_ASC_NODE":339.9136,"ARG_OF_PERICENTER":82.7145,"MEAN_ANOMALY":277.419,"EPHEMERIS_TYPE":0,"CLASSIFICATION_TYPE":"U","NORAD_CAT_ID":48066,"ELEMENT_SET_NO":999,"REV_AT_EPOCH":24059,"BSTAR":0.0010655951,"MEAN_MOTION_DOT":4.02e-6,"MEAN_MOTION_DDOT":0},{"OBJECT_NAME":"ONEWEB-0170","OBJECT_ID":"2021-025AB","EPOCH":"2026-03-10T04:51:27.360000","MEAN_MOTION":13.13469772,"ECCENTRICITY":0.00016726,"INCLINATION":87.9039,"RA_OF_ASC_NODE":339.9134,"ARG_OF_PERICENTER":96.3016,"MEAN_ANOMALY":263.8304,"EPHEMERIS_TYPE":0,"CLASSIFICATION_TYPE":"U","NORAD_CAT_ID":48067,"ELEMENT_SET_NO":999,"REV_AT_EPOCH":24055,"BSTAR":0.00092875262,"MEAN_MOTION_DOT":3.52e-6,"MEAN_MOTION_DDOT":0},{"OBJECT_NAME":"ONEWEB-0168","OBJECT_ID":"2021-025AC","EPOCH":"2026-03-10T06:19:12.607968","MEAN_MOTION":13.13470896,"ECCENTRICITY":0.0001875,"INCLINATION":87.9047,"RA_OF_ASC_NODE":339.8927,"ARG_OF_PERICENTER":76.322,"MEAN_ANOMALY":283.8118,"EPHEMERIS_TYPE":0,"CLASSIFICATION_TYPE":"U","NORAD_CAT_ID":48068,"ELEMENT_SET_NO":999,"REV_AT_EPOCH":24057,"BSTAR":0.0006003,"MEAN_MOTION_DOT":2.32e-6,"MEAN_MOTION_DDOT":0},{"OBJECT_NAME":"ONEWEB-0173","OBJECT_ID":"2021-025AD","EPOCH":"2026-03-10T06:07:01.573248","MEAN_MOTION":13.13471095,"ECCENTRICITY":0.0002122,"INCLINATION":87.9041,"RA_OF_ASC_NODE":339.9014,"ARG_OF_PERICENTER":78.6828,"MEAN_ANOMALY":281.4539,"EPHEMERIS_TYPE":0,"CLASSIFICATION_TYPE":"U","NORAD_CAT_ID":48069,"ELEMENT_SET_NO":999,"REV_AT_EPOCH":24081,"BSTAR":1.1425e-5,"MEAN_MOTION_DOT":1.7e-7,"MEAN_MOTION_DDOT":0}]
