ONEWEB-0161             
1 48053U 21025M   26069.21425218  .00000164  00000+0  41285-3 0  9991
2 48053  87.9035 339.9101 0001847  75.5969 284.5365 13.13469326240514
ONEWEB-0158             
1 48054U 21025N   26069.24979751 -.00000046  00000+0 -15950-3 0  9992
2 48054  87.9045 339.8934 0001597  87.9714 272.1598 13.13471075240645
ONEWEB-0157             
1 48055U 21025P   26069.19901759  .00000410  00000+0  10865-2 0  9992
2 48055  87.9044 339.9084 0002097  75.2402 284.8960 13.13470170240572
ONEWEB-0162             
1 48056U 21025Q   26069.25134343 -.00000071  00000+0 -22813-3 0  9999
2 48056  87.9041 339.9021 0001704  72.3753 287.7562 13.13472510240550
ONEWEB-0155             
1 48057U 21025R   26069.25826513  .00000094  00000+0  22206-3 0  9996
2 48057  87.9035 339.8995 0001876  80.5949 279.5393 13.13470256240692
ONEWEB-0149             
1 48058U 21025S   26069.20409377  .00000309  00000+0  81032-3 0  9998
2 48058  87.9044 339.9074 0001658  72.4733 287.6577 13.13469451240498
ONEWEB-0148             
1 48059U 21025T   26069.24301862 -.00000197  00000+0 -57395-3 0  9995
2 48059  87.9036 339.9143 0001813  59.1245 301.0062 13.13471731240629
ONEWEB-0160             
1 48060U 21025U   26069.25995168  .00000110  00000+0  26522-3 0  9997
2 48060  87.9031 339.9075 0001108  99.4143 260.7111 13.13470997240574
ONEWEB-0163             
1 48061U 21025V   26069.24471899 -.00000206  00000+0 -60006-3 0  9990
2 48061  87.9039 339.9031 0002016  77.2622 282.8732 13.13470665240699
ONEWEB-0159             
1 48062U 21025W   26069.31242797 -.00000302  00000+0 -86174-3 0  9993
2 48062  87.9047 339.8757 0001890  74.4712 285.6625 13.13469346240620
ONEWEB-0164             
1 48063U 21025X   26069.44616560  .00000146  00000+0  36446-3 0  9992
2 48063  87.9046 339.8561 0001661  80.3297 279.8020 13.13469602240622
ONEWEB-0167             
1 48064U 21025Y   26069.24557889 -.00000237  00000+0 -68326-3 0  9994
2 48064  87.9037 339.9145 0002336  89.5792 270.5605 13.13471274240583
ONEWEB-0166             
1 48065U 21025Z   26068.81135454  .00000385  00000+0  10207-2 0  9993
2 48065  87.9042 339.9637 0001770  72.1625 287.9698 13.13470367240609
ONEWEB-0151             
1 48066U 21025AA  26069.19394209  .00000402  00000+0  10656-2 0  9999
2 48066  87.9037 339.9136 0001814  82.7145 277.4190 13.13469887240595
ONEWEB-0170             
1 48067U 21025AB  26069.20240000  .00000352  00000+0  92875-3 0  9999
2 48067  87.9039 339.9134 0001672  96.3016 263.8304 13.13469772240551
ONEWEB-0168             
1 48068U 21025AC  26069.26334037  .00000232  00000+0  60030-3 0  9995
2 48068  87.9047 339.8927 0001875  76.3220 283.8118 13.13470896240576
ONEWEB-0173             
1 48069U 21025AD  26069.25487932  .00000017  00000+0  11425-4 0  9994
2 48069  87.9041 339.9014 0002122  78.6828 281.4539 13.13471095240814
